FENGYUN 1C DEB          
1 41014U 99025EXU 17345.32237238  .00001803  00000-0  40425-3 0  9995
2 41014  98.9132 183.8433 0071247  29.4141 331.1036 14.56448882198528
